1 26724U 01012A   13221.42453272 -.00000030  00000-0  10000-3 0  5841
2 26724   0.1981 276.6140 0003709  31.0552  47.9753  1.00271779 45472
